ORBCOMM FM103           
1 40091U 14040F   25358.99081891  .00000467  00000+0  13581-3 0  9998
2 40091  47.0034 196.4730 0001250  75.1049 284.9975 14.58551577591959
ORBCOMM FM114           
1 41179U 15081A   25359.00742757  .00000609  00000+0  16597-3 0  9998
2 41179  47.0044 105.3474 0001907 142.6707 217.4311 14.58572535532320
ORBCOMM FM119           
1 41180U 15081B   25359.07241392  .00000684  00000+0  18209-3 0  9991
2 41180  47.0014  14.3996 0001656 238.9483 121.1240 14.58521974533580
ORBCOMM FM105           
1 41181U 15081C   25358.53633610  .00000248  00000+0  11419-3 0  9992
2 41181  47.0021  40.4857 0000811 107.0083 253.0886 14.45414357528283
ORBCOMM FM110           
1 41182U 15081D   25358.99716579  .00000789  00000+0  20413-3 0  9993
2 41182  47.0017 104.8926 0002394 330.0476  30.0272 14.58602793532197
ORBCOMM FM118           
1 41183U 15081E   25359.30569409  .00000700  00000+0  18525-3 0  9992
2 41183  47.0038 103.7347 0003232 295.8286  64.2266 14.58594671532349
ORBCOMM FM112           
1 41184U 15081F   25359.10285546  .00000776  00000+0  20149-3 0  9996
2 41184  46.9999  13.2249 0000964 169.4321 190.6585 14.58599892533535
ORBCOMM FM113           
1 41185U 15081G   25359.08014130  .00000814  00000+0  20959-3 0  9995
2 41185  47.0016  13.6899 0000996 192.5177 167.5684 14.58596973533512
